{"type": "FeatureCollection", "features": [ {"type": "Feature", "properties": {"norad_id": 66426, "name": "STARLINK-35589", "group": "last-30-days", "lat": 42.63715377900021, "lon": -166.542479555029, "alt_km": 417.7036995986937, "timestamp": "2025-12-04T15:47:52.868451+00:00", "meta": {"OBJECT_NAME": "STARLINK-35589", "OBJECT_ID": "2025-259E", "EPOCH": "2025-12-04T08:00:01.999872", "MEAN_MOTION": 15.49180701, "ECCENTRICITY": 0.00013413, "INCLINATION": 43.0003, "RA_OF_ASC_NODE": 96.4939, "ARG_OF_PERICENTER": 278.5426, "MEAN_ANOMALY": 164.6968, "EPHEMERIS_TYPE": 0, "CLASSIFICATION_TYPE": "U", "NORAD_CAT_ID": 66426, "ELEMENT_SET_NO": 999, "REV_AT_EPOCH": 492, "BSTAR": -0.041451949, "MEAN_MOTION_DOT": -0.02059101, "MEAN_MOTION_DDOT": 0}, "tle": {"line1": "1 66426U 25259E   25338.33335648 -.02059101  00000+0 -41452-1 0  9999", "line2": "2 66426  43.0003  96.4939 0001341 278.5426 164.6968 15.49180701  4920"}}, "geometry": {"type": "Point", "coordinates": [-166.542479555029, 42.63715377900021]}}, {"type": "Feature", "properties": {"norad_id": 66427, "name": "STARLINK-35611", "group": "last-30-days", "lat": 42.04891548878768, "lon": -160.85594573864412, "alt_km": 413.97838250031145, "timestamp": "2025-12-04T15:47:52.868461+00:00", "meta": {"OBJECT_NAME": "STARLINK-35611", "OBJECT_ID": "2025-259F", "EPOCH": "2025-12-04T08:00:01.999872", "MEAN_MOTION": 15.50512132, "ECCENTRICITY": 0.00014717, "INCLINATION": 43.0004, "RA_OF_ASC_NODE": 96.4864, "ARG_OF_PERICENTER": 272.699, "MEAN_ANOMALY": 173.2278, "EPHEMERIS_TYPE": 0, "CLASSIFICATION_TYPE": "U", "NORAD_CAT_ID": 66427, "ELEMENT_SET_NO": 999, "REV_AT_EPOCH": 492, "BSTAR": -0.039539865, "MEAN_MOTION_DOT": -0.02059883, "MEAN_MOTION_DDOT": 0}, "tle": {"line1": "1 66427U 25259F   25338.33335648 -.02059883  00000+0 -39540-1 0  9992", "line2": "2 66427  43.0004  96.4864 0001471 272.6990 173.2278 15.50512132  4923"}}, "geometry": {"type": "Point", "coordinates": [-160.85594573864412, 42.04891548878768]}}, {"type": "Feature", "properties": {"norad_id": 66428, "name": "STARLINK-35610", "group": "last-30-days", "lat": 41.50646762138637, "lon": -157.1565781851718, "alt_km": 410.22187327016854, "timestamp": "2025-12-04T15:47:52.868473+00:00", "meta": {"OBJECT_NAME": "STARLINK-35610", "OBJECT_ID": "2025-259G", "EPOCH": "2025-12-04T08:00:01.999872", "MEAN_MOTION": 15.50832355, "ECCENTRICITY": 0.00012857, "INCLINATION": 43.0005, "RA_OF_ASC_NODE": 96.4815, "ARG_OF_PERICENTER": 276.1379, "MEAN_ANOMALY": 171.6823, "EPHEMERIS_TYPE": 0, "CLASSIFICATION_TYPE": "U", "NORAD_CAT_ID": 66428, "ELEMENT_SET_NO": 999, "REV_AT_EPOCH": 492, "BSTAR": -0.014420163, "MEAN_MOTION_DOT": -0.00784883, "MEAN_MOTION_DDOT": 0}, "tle": {"line1": "1 66428U 25259G   25338.33335648 -.00784883  00000+0 -14420-1 0  9996", "line2": "2 66428  43.0005  96.4815 0001285 276.1379 171.6823 15.50832355  4924"}}, "geometry": {"type": "Point", "coordinates": [-157.1565781851718, 41.50646762138637]}}, {"type": "Feature", "properties": {"norad_id": 66429, "name": "STARLINK-35533", "group": "last-30-days", "lat": 41.05935388295746, "lon": -154.62221023428103, "alt_km": 409.54765589052295, "timestamp": "2025-12-04T15:47:52.868483+00:00", "meta": {"OBJECT_NAME": "STARLINK-35533", "OBJECT_ID": "2025-259H", "EPOCH": "2025-12-04T08:00:01.999872", "MEAN_MOTION": 15.50558831, "ECCENTRICITY": 0.00015748, "INCLINATION": 43.0003, "RA_OF_ASC_NODE": 96.4755, "ARG_OF_PERICENTER": 262.9612, "MEAN_ANOMALY": 186.817, "EPHEMERIS_TYPE": 0, "CLASSIFICATION_TYPE": "U", "NORAD_CAT_ID": 66429, "ELEMENT_SET_NO": 999, "REV_AT_EPOCH": 492, "BSTAR": 0.0001172315, "MEAN_MOTION_DOT": 6.537e-05, "MEAN_MOTION_DDOT": 0}, "tle": {"line1": "1 66429U 25259H   25338.33335648  .00006537  00000+0  11723-3 0  9993", "line2": "2 66429  43.0003  96.4755 0001574 262.9612 186.8170 15.50558831  4927"}}, "geometry": {"type": "Point", "coordinates": [-154.62221023428103, 41.05935388295746]}}, {"type": "Feature", "properties": {"norad_id": 66430, "name": "STARLINK-35470", "group": "last-30-days", "lat": 40.568902279631516, "lon": -152.17447512182628, "alt_km": 409.60183582641366, "timestamp": "2025-12-04T15:47:52.868493+00:00", "meta": {"OBJECT_NAME": "STARLINK-35470", "OBJECT_ID": "2025-259J", "EPOCH": "2025-12-04T08:00:01.999872", "MEAN_MOTION": 15.50585041, "ECCENTRICITY": 0.00015987, "INCLINATION": 43.0005, "RA_OF_ASC_NODE": 96.4722, "ARG_OF_PERICENTER": 253.1587, "MEAN_ANOMALY": 198.5353, "EPHEMERIS_TYPE": 0, "CLASSIFICATION_TYPE": "U", "NORAD_CAT_ID": 66430, "ELEMENT_SET_NO": 999, "REV_AT_EPOCH": 492, "BSTAR": -0.0010869418, "MEAN_MOTION_DOT": -0.00063606, "MEAN_MOTION_DDOT": 0}, "tle": {"line1": "1 66430U 25259J   25338.33335648 -.00063606  00000+0 -10869-2 0  9996", "line2": "2 66430  43.0005  96.4722 0001598 253.1587 198.5353 15.50585041  4920"}}, "geometry": {"type": "Point", "coordinates": [-152.17447512182628, 40.568902279631516]}}, {"type": "Feature", "properties": {"norad_id": 66431, "name": "STARLINK-35439", "group": "last-30-days", "lat": 40.02527224660956, "lon": -149.75817345270778, "alt_km": 409.72715168167997, "timestamp": "2025-12-04T15:47:52.868503+00:00", "meta": {"OBJECT_NAME": "STARLINK-35439", "OBJECT_ID": "2025-259K", "EPOCH": "2025-12-04T08:00:01.999872", "MEAN_MOTION": 15.50602865, "ECCENTRICITY": 0.00015605, "INCLINATION": 43.0006, "RA_OF_ASC_NODE": 96.4663, "ARG_OF_PERICENTER": 262.4993, "MEAN_ANOMALY": 191.1042, "EPHEMERIS_TYPE": 0, "CLASSIFICATION_TYPE": "U", "NORAD_CAT_ID": 66431, "ELEMENT_SET_NO": 999, "REV_AT_EPOCH": 492, "BSTAR": -0.0015137121, "MEAN_MOTION_DOT": -0.00088226, "MEAN_MOTION_DDOT": 0}, "tle": {"line1": "1 66431U 25259K   25338.33335648 -.00088226  00000+0 -15137-2 0  9995", "line2": "2 66431  43.0006  96.4663 0001560 262.4993 191.1042 15.50602865  4927"}}, "geometry": {"type": "Point", "coordinates": [-149.75817345270778, 40.02527224660956]}}, {"type": "Feature", "properties": {"norad_id": 66432, "name": "STARLINK-35446", "group": "last-30-days", "lat": 39.43676856265859, "lon": -147.40025573182692, "alt_km": 409.75004286764306, "timestamp": "2025-12-04T15:47:52.868516+00:00", "meta": {"OBJECT_NAME": "STARLINK-35446", "OBJECT_ID": "2025-259L", "EPOCH": "2025-12-04T08:00:01.999872", "MEAN_MOTION": 15.50706241, "ECCENTRICITY": 0.00014257, "INCLINATION": 43.0006, "RA_OF_ASC_NODE": 96.4607, "ARG_OF_PERICENTER": 291.8859, "MEAN_ANOMALY": 163.5404, "EPHEMERIS_TYPE": 0, "CLASSIFICATION_TYPE": "U", "NORAD_CAT_ID": 66432, "ELEMENT_SET_NO": 999, "REV_AT_EPOCH": 492, "BSTAR": -0.0034882928, "MEAN_MOTION_DOT": -0.00200734, "MEAN_MOTION_DDOT": 0}, "tle": {"line1": "1 66432U 25259L   25338.33335648 -.00200734  00000+0 -34883-2 0  9995", "line2": "2 66432  43.0006  96.4607 0001425 291.8859 163.5404 15.50706241  4921"}}, "geometry": {"type": "Point", "coordinates": [-147.40025573182692, 39.43676856265859]}}, {"type": "Feature", "properties": {"norad_id": 66433, "name": "STARLINK-35457", "group": "last-30-days", "lat": 38.79693638997478, "lon": -145.06637907954112, "alt_km": 409.81991553258194, "timestamp": "2025-12-04T15:47:52.868528+00:00", "meta": {"OBJECT_NAME": "STARLINK-35457", "OBJECT_ID": "2025-259M", "EPOCH": "2025-12-04T08:00:01.999872", "MEAN_MOTION": 15.50590279, "ECCENTRICITY": 0.0001428, "INCLINATION": 43.0005, "RA_OF_ASC_NODE": 96.4571, "ARG_OF_PERICENTER": 263.971, "MEAN_ANOMALY": 193.4685, "EPHEMERIS_TYPE": 0, "CLASSIFICATION_TYPE": "U", "NORAD_CAT_ID": 66433, "ELEMENT_SET_NO": 999, "REV_AT_EPOCH": 492, "BSTAR": -0.0011923485, "MEAN_MOTION_DOT": -0.00069699, "MEAN_MOTION_DDOT": 0}, "tle": {"line1": "1 66433U 25259M   25338.33335648 -.00069699  00000+0 -11923-2 0  9999", "line2": "2 66433  43.0005  96.4571 0001428 263.9710 193.4685 15.50590279  4925"}}, "geometry": {"type": "Point", "coordinates": [-145.06637907954112, 38.79693638997478]}}, {"type": "Feature", "properties": {"norad_id": 66434, "name": "STARLINK-35389", "group": "last-30-days", "lat": 38.11164927333482, "lon": -142.77753688441146, "alt_km": 409.8907055833279, "timestamp": "2025-12-04T15:47:52.868538+00:00", "meta": {"OBJECT_NAME": "STARLINK-35389", "OBJECT_ID": "2025-259N", "EPOCH": "2025-12-04T08:00:01.999872", "MEAN_MOTION": 15.50580366, "ECCENTRICITY": 0.00013704, "INCLINATION": 43.0005, "RA_OF_ASC_NODE": 96.4522, "ARG_OF_PERICENTER": 263.6351, "MEAN_ANOMALY": 195.7336, "EPHEMERIS_TYPE": 0, "CLASSIFICATION_TYPE": "U", "NORAD_CAT_ID": 66434, "ELEMENT_SET_NO": 999, "REV_AT_EPOCH": 492, "BSTAR": -0.0010756709, "MEAN_MOTION_DOT": -0.00062943, "MEAN_MOTION_DDOT": 0}, "tle": {"line1": "1 66434U 25259N   25338.33335648 -.00062943  00000+0 -10757-2 0  9999", "line2": "2 66434  43.0005  96.4522 0001370 263.6351 195.7336 15.50580366  4920"}}, "geometry": {"type": "Point", "coordinates": [-142.77753688441146, 38.11164927333482]}}, {"type": "Feature", "properties": {"norad_id": 66435, "name": "STARLINK-35502", "group": "last-30-days", "lat": 37.38593107889384, "lon": -140.54095654053665, "alt_km": 409.9988940634221, "timestamp": "2025-12-04T15:47:52.868549+00:00", "meta": {"OBJECT_NAME": "STARLINK-35502", "OBJECT_ID": "2025-259P", "EPOCH": "2025-12-04T08:00:01.999872", "MEAN_MOTION": 15.50583793, "ECCENTRICITY": 0.00014326, "INCLINATION": 43.0006, "RA_OF_ASC_NODE": 96.4486, "ARG_OF_PERICENTER": 262.6641, "MEAN_ANOMALY": 198.6118, "EPHEMERIS_TYPE": 0, "CLASSIFICATION_TYPE": "U", "NORAD_CAT_ID": 66435, "ELEMENT_SET_NO": 999, "REV_AT_EPOCH": 492, "BSTAR": -0.0010058742, "MEAN_MOTION_DOT": -0.00058919, "MEAN_MOTION_DDOT": 0}, "tle": {"line1": "1 66435U 25259P   25338.33335648 -.00058919  00000+0 -10059-2 0  9993", "line2": "2 66435  43.0006  96.4486 0001432 262.6641 198.6118 15.50583793  4928"}}, "geometry": {"type": "Point", "coordinates": [-140.54095654053665, 37.38593107889384]}}]}